[{"OBJECT_NAME":"ONEWEB-0216","OBJECT_ID":"2021-045AL","EPOCH":"2026-01-22T05:39:57.209184","MEAN_MOTION":13.15550107,"ECCENTRICITY":0.00016772,"INCLINATION":87.9004,"RA_OF_ASC_NODE":288.3292,"ARG_OF_PERICENTER":69.5585,"MEAN_ANOMALY":290.5726,"EPHEMERIS_TYPE":0,"CLASSIFICATION_TYPE":"U","NORAD_CAT_ID":48801,"ELEMENT_SET_NO":999,"REV_AT_EPOCH":22511,"BSTAR":4.3683938e-5,"MEAN_MOTION_DOT":2.9e-7,"MEAN_MOTION_DDOT":0},{"OBJECT_NAME":"ONEWEB-0239","OBJECT_ID":"2021-045AM","EPOCH":"2026-01-22T05:46:48.013536","MEAN_MOTION":13.15547638,"ECCENTRICITY":7.529e-5,"INCLINATION":87.9001,"RA_OF_ASC_NODE":288.3425,"ARG_OF_PERICENTER":68.6999,"MEAN_ANOMALY":291.4212,"EPHEMERIS_TYPE":0,"CLASSIFICATION_TYPE":"U","NORAD_CAT_ID":48802,"ELEMENT_SET_NO":999,"REV_AT_EPOCH":22515,"BSTAR":0.0003514834,"MEAN_MOTION_DOT":1.45e-6,"MEAN_MOTION_DDOT":0},{"OBJECT_NAME":"ONEWEB-0249","OBJECT_ID":"2021-060A","EPOCH":"2026-01-22T03:18:37.404288","MEAN_MOTION":13.16596093,"ECCENTRICITY":0.00013587,"INCLINATION":87.9021,"RA_OF_ASC_NODE":257.8551,"ARG_OF_PERICENTER":80.1746,"MEAN_ANOMALY":279.9538,"EPHEMERIS_TYPE":0,"CLASSIFICATION_TYPE":"U","NORAD_CAT_ID":48967,"ELEMENT_SET_NO":999,"REV_AT_EPOCH":22039,"BSTAR":7.3310987e-5,"MEAN_MOTION_DOT":4.1e-7,"MEAN_MOTION_DDOT":0},{"OBJECT_NAME":"ONEWEB-0250","OBJECT_ID":"2021-060B","EPOCH":"2026-01-22T04:50:04.885152","MEAN_MOTION":13.25824419,"ECCENTRICITY":0.00015354,"INCLINATION":87.9018,"RA_OF_ASC_NODE":256.0761,"ARG_OF_PERICENTER":121.0197,"MEAN_ANOMALY":239.109,"EPHEMERIS_TYPE":0,"CLASSIFICATION_TYPE":"U","NORAD_CAT_ID":48968,"ELEMENT_SET_NO":999,"REV_AT_EPOCH":22087,"BSTAR":0.0001056605,"MEAN_MOTION_DOT":6.0e-7,"MEAN_MOTION_DDOT":0},{"OBJECT_NAME":"ONEWEB-0252","OBJECT_ID":"2021-060D","EPOCH":"2026-01-22T04:04:13.409760","MEAN_MOTION":13.16593979,"ECCENTRICITY":0.00015426,"INCLINATION":87.9017,"RA_OF_ASC_NODE":257.8433,"ARG_OF_PERICENTER":72.2601,"MEAN_ANOMALY":287.8698,"EPHEMERIS_TYPE":0,"CLASSIFICATION_TYPE":"U","NORAD_CAT_ID":48970,"ELEMENT_SET_NO":999,"REV_AT_EPOCH":22044,"BSTAR":0.00038965173,"MEAN_MOTION_DOT":1.62e-6,"MEAN_MOTION_DDOT":0},{"OBJECT_NAME":"ONEWEB-0253","OBJECT_ID":"2021-060E","EPOCH":"2026-01-22T03:48:15.928416","MEAN_MOTION":13.16595878,"ECCENTRICITY":0.00013606,"INCLINATION":87.9019,"RA_OF_ASC_NODE":257.8503,"ARG_OF_PERICENTER":77.3895,"MEAN_ANOMALY":282.7388,"EPHEMERIS_TYPE":0,"CLASSIFICATION_TYPE":"U","NORAD_CAT_ID":48971,"ELEMENT_SET_NO":999,"REV_AT_EPOCH":22037,"BSTAR":6.5583983e-5,"MEAN_MOTION_DOT":3.8e-7,"MEAN_MOTION_DDOT":0},{"OBJECT_NAME":"ONEWEB-0254","OBJECT_ID":"2021-060F","EPOCH":"2026-01-22T04:01:55.688160","MEAN_MOTION":13.16592897,"ECCENTRICITY":0.00011374,"INCLINATION":87.9022,"RA_OF_ASC_NODE":257.8417,"ARG_OF_PERICENTER":82.8519,"MEAN_ANOMALY":277.2741,"EPHEMERIS_TYPE":0,"CLASSIFICATION_TYPE":"U","NORAD_CAT_ID":48972,"ELEMENT_SET_NO":999,"REV_AT_EPOCH":22037,"BSTAR":0.00020529574,"MEAN_MOTION_DOT":9.1e-7,"MEAN_MOTION_DDOT":0},{"OBJECT_NAME":"ONEWEB-0255","OBJECT_ID":"2021-060G","EPOCH":"2026-01-22T04:56:39.760800","MEAN_MOTION":13.16596336,"ECCENTRICITY":0.00012713,"INCLINATION":87.9015,"RA_OF_ASC_NODE":257.8466,"ARG_OF_PERICENTER":80.5573,"MEAN_ANOMALY":279.5701,"EPHEMERIS_TYPE":0,"CLASSIFICATION_TYPE":"U","NORAD_CAT_ID":48973,"ELEMENT_SET_NO":999,"REV_AT_EPOCH":22045,"BSTAR":-6.901572e-5,"MEAN_MOTION_DOT":-1.4e-7,"MEAN_MOTION_DDOT":0},{"OBJECT_NAME":"ONEWEB-0256","OBJECT_ID":"2021-060H","EPOCH":"2026-01-22T03:44:50.743968","MEAN_MOTION":13.16593754,"ECCENTRICITY":0.00016087,"INCLINATION":87.901,"RA_OF_ASC_NODE":257.8627,"ARG_OF_PERICENTER":78.2727,"MEAN_ANOMALY":281.8584,"EPHEMERIS_TYPE":0,"CLASSIFICATION_TYPE":"U","NORAD_CAT_ID":48974,"ELEMENT_SET_NO":999,"REV_AT_EPOCH":22041,"BSTAR":0.00026194013,"MEAN_MOTION_DOT":1.13e-6,"MEAN_MOTION_DDOT":0},{"OBJECT_NAME":"ONEWEB-0257","OBJECT_ID":"2021-060J","EPOCH":"2026-01-22T00:52:42.282336","MEAN_MOTION":13.16596099,"ECCENTRICITY":0.00013683,"INCLINATION":87.9022,"RA_OF_ASC_NODE":257.8691,"ARG_OF_PERICENTER":74.3317,"MEAN_ANOMALY":285.7964,"EPHEMERIS_TYPE":0,"CLASSIFICATION_TYPE":"U","NORAD_CAT_ID":48975,"ELEMENT_SET_NO":999,"REV_AT_EPOCH":22035,"BSTAR":0.00023789902,"MEAN_MOTION_DOT":1.04e-6,"MEAN_MOTION_DDOT":0},{"OBJECT_NAME":"ONEWEB-0258","OBJECT_ID":"2021-060K","EPOCH":"2026-01-22T04:33:51.530400","MEAN_MOTION":13.16596161,"ECCENTRICITY":0.00014912,"INCLINATION":87.9017,"RA_OF_ASC_NODE":257.8512,"ARG_OF_PERICENTER":83.0192,"MEAN_ANOMALY":277.1108,"EPHEMERIS_TYPE":0,"CLASSIFICATION_TYPE":"U","NORAD_CAT_ID":48976,"ELEMENT_SET_NO":999,"REV_AT_EPOCH":22038,"BSTAR":9.879129e-5,"MEAN_MOTION_DOT":5.1e-7,"MEAN_MOTION_DDOT":0},{"OBJECT_NAME":"ONEWEB-0259","OBJECT_ID":"2021-060L","EPOCH":"2026-01-22T04:24:44.329824","MEAN_MOTION":13.16595733,"ECCENTRICITY":0.00013287,"INCLINATION":87.9023,"RA_OF_ASC_NODE":257.8498,"ARG_OF_PERICENTER":82.0939,"MEAN_ANOMALY":278.0343,"EPHEMERIS_TYPE":0,"CLASSIFICATION_TYPE":"U","NORAD_CAT_ID":48977,"ELEMENT_SET_NO":999,"REV_AT_EPOCH":22041,"BSTAR":0.00016279733,"MEAN_MOTION_DOT":7.5e-7,"MEAN_MOTION_DDOT":0},{"OBJECT_NAME":"ONEWEB-0260","OBJECT_ID":"2021-060M","EPOCH":"2026-01-22T04:12:12.256704","MEAN_MOTION":13.16593873,"ECCENTRICITY":0.00017473,"INCLINATION":87.901,"RA_OF_ASC_NODE":257.8606,"ARG_OF_PERICENTER":68.8639,"MEAN_ANOMALY":291.2679,"EPHEMERIS_TYPE":0,"CLASSIFICATION_TYPE":"U","NORAD_CAT_ID":48978,"ELEMENT_SET_NO":999,"REV_AT_EPOCH":22039,"BSTAR":0.00058978779,"MEAN_MOTION_DOT":2.38e-6,"MEAN_MOTION_DDOT":0},{"OBJECT_NAME":"ONEWEB-0261","OBJECT_ID":"2021-060N","EPOCH":"2026-01-22T03:28:52.804704","MEAN_MOTION":13.16593263,"ECCENTRICITY":0.00012049,"INCLINATION":87.9013,"RA_OF_ASC_NODE":257.8683,"ARG_OF_PERICENTER":69.4529,"MEAN_ANOMALY":290.6731,"EPHEMERIS_TYPE":0,"CLASSIFICATION_TYPE":"U","NORAD_CAT_ID":48979,"ELEMENT_SET_NO":999,"REV_AT_EPOCH":22044,"BSTAR":2.6675572e-5,"MEAN_MOTION_DOT":2.3e-7,"MEAN_MOTION_DDOT":0},{"OBJECT_NAME":"ONEWEB-0262","OBJECT_ID":"2021-060P","EPOCH":"2026-01-22T04:49:49.106784","MEAN_MOTION":13.16596289,"ECCENTRICITY":0.00012594,"INCLINATION":87.9022,"RA_OF_ASC_NODE":257.8345,"ARG_OF_PERICENTER":88.7741,"MEAN_ANOMALY":271.3534,"EPHEMERIS_TYPE":0,"CLASSIFICATION_TYPE":"U","NORAD_CAT_ID":48980,"ELEMENT_SET_NO":999,"REV_AT_EPOCH":22041,"BSTAR":0.0001340081,"MEAN_MOTION_DOT":6.4e-7,"MEAN_MOTION_DDOT":0},{"OBJECT_NAME":"ONEWEB-0263","OBJECT_ID":"2021-060Q","EPOCH":"2026-01-22T03:45:58.325184","MEAN_MOTION":13.16596091,"ECCENTRICITY":0.00011468,"INCLINATION":87.9013,"RA_OF_ASC_NODE":257.8557,"ARG_OF_PERICENTER":72.5814,"MEAN_ANOMALY":287.5442,"EPHEMERIS_TYPE":0,"CLASSIFICATION_TYPE":"U","NORAD_CAT_ID":48981,"ELEMENT_SET_NO":999,"REV_AT_EPOCH":22037,"BSTAR":5.3915715e-5,"MEAN_MOTION_DOT":3.3e-7,"MEAN_MOTION_DDOT":0},{"OBJECT_NAME":"ONEWEB-0264","OBJECT_ID":"2021-060R","EPOCH":"2026-01-22T04:39:33.086016","MEAN_MOTION":13.1659323,"ECCENTRICITY":0.0001474,"INCLINATION":87.9019,"RA_OF_ASC_NODE":257.8517,"ARG_OF_PERICENTER":70.88,"MEAN_ANOMALY":289.249,"EPHEMERIS_TYPE":0,"CLASSIFICATION_TYPE":"U","NORAD_CAT_ID":48982,"ELEMENT_SET_NO":999,"REV_AT_EPOCH":22038,"BSTAR":6.6226691e-5,"MEAN_MOTION_DOT":3.8e-7,"MEAN_MOTION_DDOT":0}]
