ONEWEB-0216             
1 48801U 21045AL  26022.23607881  .00000029  00000+0  43684-4 0  9999
2 48801  87.9004 288.3292 0001677  69.5585 290.5726 13.15550107225114
ONEWEB-0239             
1 48802U 21045AM  26022.24083349  .00000145  00000+0  35148-3 0  9992
2 48802  87.9001 288.3425 0000752  68.6999 291.4212 13.15547638225151
ONEWEB-0249             
1 48967U 21060A   26022.13793292  .00000041  00000+0  73311-4 0  9994
2 48967  87.9021 257.8551 0001358  80.1746 279.9538 13.16596093220391
ONEWEB-0250             
1 48968U 21060B   26022.20144543  .00000060  00000+0  10566-3 0  9995
2 48968  87.9018 256.0761 0001535 121.0197 239.1090 13.25824419220874
ONEWEB-0252             
1 48970U 21060D   26022.16959965  .00000162  00000+0  38965-3 0  9991
2 48970  87.9017 257.8433 0001542  72.2601 287.8698 13.16593979220447
ONEWEB-0253             
1 48971U 21060E   26022.15851769  .00000038  00000+0  65584-4 0  9994
2 48971  87.9019 257.8503 0001360  77.3895 282.7388 13.16595878220379
ONEWEB-0254             
1 48972U 21060F   26022.16800565  .00000091  00000+0  20530-3 0  9994
2 48972  87.9022 257.8417 0001137  82.8519 277.2741 13.16592897220374
ONEWEB-0255             
1 48973U 21060G   26022.20601575 -.00000014  00000+0 -69016-4 0  9990
2 48973  87.9015 257.8466 0001271  80.5573 279.5701 13.16596336220457
ONEWEB-0256             
1 48974U 21060H   26022.15614287  .00000113  00000+0  26194-3 0  9996
2 48974  87.9010 257.8627 0001608  78.2727 281.8584 13.16593754220413
ONEWEB-0257             
1 48975U 21060J   26022.03660049  .00000104  00000+0  23790-3 0  9990
2 48975  87.9022 257.8691 0001368  74.3317 285.7964 13.16596099220356
ONEWEB-0258             
1 48976U 21060K   26022.19017975  .00000051  00000+0  98791-4 0  9997
2 48976  87.9017 257.8512 0001491  83.0192 277.1108 13.16596161220386
ONEWEB-0259             
1 48977U 21060L   26022.18384641  .00000075  00000+0  16280-3 0  9992
2 48977  87.9023 257.8498 0001328  82.0939 278.0343 13.16595733220413
ONEWEB-0260             
1 48978U 21060M   26022.17514186  .00000238  00000+0  58979-3 0  9993
2 48978  87.9010 257.8606 0001747  68.8639 291.2679 13.16593873220394
ONEWEB-0261             
1 48979U 21060N   26022.14505561  .00000023  00000+0  26676-4 0  9990
2 48979  87.9013 257.8683 0001204  69.4529 290.6731 13.16593263220447
ONEWEB-0262             
1 48980U 21060P   26022.20126281  .00000064  00000+0  13401-3 0  9993
2 48980  87.9022 257.8345 0001259  88.7741 271.3534 13.16596289220419
ONEWEB-0263             
1 48981U 21060Q   26022.15692506  .00000033  00000+0  53916-4 0  9998
2 48981  87.9013 257.8557 0001146  72.5814 287.5442 13.16596091220375
ONEWEB-0264             
1 48982U 21060R   26022.19413294  .00000038  00000+0  66227-4 0  9992
2 48982  87.9019 257.8517 0001474  70.8800 289.2490 13.16593230220383
